[{"OBJECT_NAME":"ORBITER SN3","OBJECT_ID":"2023-084AE","EPOCH":"2026-03-09T23:12:21.976128","MEAN_MOTION":15.32943891,"ECCENTRICITY":0.00075889,"INCLINATION":97.61,"RA_OF_ASC_NODE":206.6768,"ARG_OF_PERICENTER":331.7947,"MEAN_ANOMALY":28.2883,"EPHEMERIS_TYPE":0,"CLASSIFICATION_TYPE":"U","NORAD_CAT_ID":56960,"ELEMENT_SET_NO":999,"REV_AT_EPOCH":15228,"BSTAR":0.00032835432,"MEAN_MOTION_DOT":0.00010378,"MEAN_MOTION_DDOT":0},{"OBJECT_NAME":"STARLINK-32189","OBJECT_ID":"2024-133S","EPOCH":"2026-03-09T21:45:11.053152","MEAN_MOTION":15.30197277,"ECCENTRICITY":0.00011563,"INCLINATION":53.1591,"RA_OF_ASC_NODE":296.0444,"ARG_OF_PERICENTER":85.3535,"MEAN_ANOMALY":274.7597,"EPHEMERIS_TYPE":0,"CLASSIFICATION_TYPE":"U","NORAD_CAT_ID":60317,"ELEMENT_SET_NO":999,"REV_AT_EPOCH":9176,"BSTAR":-2.0333749e-5,"MEAN_MOTION_DOT":-9.61e-6,"MEAN_MOTION_DDOT":0}]
